QIANFAN-65              
1 62795U 25016L   25254.89031065  .00000061  00000+0  76198-4 0  9994
2 62795  88.9764 112.5647 0012113 247.4425 112.5445 13.50968141 34844
QIANFAN-66              
1 62796U 25016M   25254.91911300  .00000055  00000+0  66228-4 0  9993
2 62796  88.9783 112.5139 0013258 242.4655 117.5149 13.50963391 34896
QIANFAN-67              
1 62797U 25016N   25254.92312472  .00000059  00000+0  72983-4 0  9999
2 62797  88.9774 112.5480 0013188 250.3103 109.6626 13.50964773 34868
QIANFAN-68              
1 62798U 25016P   25253.66813627  .00000032  00000+0  31823-4 0  9997
2 62798  88.9779 112.7222 0013797 252.5553 107.4090 13.50961698 34672
QIANFAN-69              
1 62799U 25016Q   25254.85734722  .00000065  00000+0  82628-4 0  9993
2 62799  88.9756 112.4859 0013995 249.7395 110.2252 13.50964946 34876
QIANFAN-70              
1 62800U 25016R   25254.94784362  .00000066  00000+0  84116-4 0  9996
2 62800  88.9777 112.5955 0013658 238.5406 121.4410 13.50969145 34848
QIANFAN-71              
1 62801U 25016S   25254.94380783  .00000063  00000+0  78546-4 0  9993
2 62801  88.9771 112.5811 0013902 253.4556 106.5068 13.50968633 34842
QIANFAN-72              
1 62802U 25016T   25254.93965952  .00000067  00000+0  84696-4 0  9997
2 62802  88.9761 112.5989 0017313 260.7212  99.1981 13.50964115 34839
